STARLINK-36427          
1 67333U 26002AE  26067.74467528  .00034987  00000+0  12747-2 0  9999
2 67333  42.9939 330.6507 0000426 294.3069  65.7738 15.27584960 10991
2025-313BE              
1 67482U 25313BE  26068.69721505  .00077178  00000+0  26504-2 0  9996
2 67482  97.3989 145.3568 0007208 335.3714  24.7181 15.29801687  7972
